{
  "norad_id": 58999,
  "name": "STARLINK-31440",
  "history": [
    {
      "epoch": "2026-03-28T22:27:45.545184Z",
      "apogee_km": 475.9777542811016,
      "perigee_km": 474.47371529532575,
      "latitude_deg": 3.3522614050939824e-05,
      "longitude_deg": -174.8193908790276,
      "height_km": 475.96533282284986,
      "semi_major_axis_km": 6853.362734788214,
      "eccentricity": 0.00010973,
      "inclination_deg": 53.1598,
      "raan_deg": 348.4696,
      "arg_perigee_deg": 77.8156,
      "mean_anomaly_deg": 282.2968,
      "mean_motion_rev_day": 15.30196428
    },
    {
      "epoch": "2026-03-29T00:01:48.675648Z",
      "apogee_km": 475.98474851077026,
      "perigee_km": 474.4591908041248,
      "latitude_deg": -4.615144374814763e-05,
      "longitude_deg": 161.30002970923837,
      "height_km": 476.24469492368604,
      "semi_major_axis_km": 6853.358969657447,
      "eccentricity": 0.0001113,
      "inclination_deg": 53.1593,
      "raan_deg": 348.1665,
      "arg_perigee_deg": 99.3929,
      "mean_anomaly_deg": 260.7197,
      "mean_motion_rev_day": 15.30197689
    },
    {
      "epoch": "2026-03-30T02:40:42.909600Z",
      "apogee_km": 476.03998288716684,
      "perigee_km": 474.42807002174413,
      "latitude_deg": -3.120109259582141e-05,
      "longitude_deg": 115.32075585497351,
      "height_km": 476.1026827370331,
      "semi_major_axis_km": 6853.371026454455,
      "eccentricity": 0.0001176,
      "inclination_deg": 53.1607,
      "raan_deg": 343.0076,
      "arg_perigee_deg": 87.8934,
      "mean_anomaly_deg": 272.2201,
      "mean_motion_rev_day": 15.30193651
    },
    {
      "epoch": "2026-03-30T02:40:42.911328Z",
      "apogee_km": 476.039845819746,
      "perigee_km": 474.42820708916497,
      "latitude_deg": -2.9368701231453977e-05,
      "longitude_deg": 115.32075000044641,
      "height_km": 476.10268777700924,
      "semi_major_axis_km": 6853.371026454455,
      "eccentricity": 0.00011758,
      "inclination_deg": 53.1607,
      "raan_deg": 343.0076,
      "arg_perigee_deg": 87.8934,
      "mean_anomaly_deg": 272.2201,
      "mean_motion_rev_day": 15.30193651
    },
    {
      "epoch": "2026-03-30T19:55:18.440256Z",
      "apogee_km": 476.1174816508337,
      "perigee_km": 474.327795314839,
      "latitude_deg": 9.098937967222792e-06,
      "longitude_deg": -147.3729108725693,
      "height_km": 476.0520993127864,
      "semi_major_axis_km": 6853.359638482836,
      "eccentricity": 0.00013057,
      "inclination_deg": 53.1603,
      "raan_deg": 339.6701,
      "arg_perigee_deg": 85.6032,
      "mean_anomaly_deg": 274.5118,
      "mean_motion_rev_day": 15.30197465
    },
    {
      "epoch": "2026-03-31T21:00:09.698400Z",
      "apogee_km": 476.2210282522128,
      "perigee_km": 474.2362935568153,
      "latitude_deg": -1.5133274331415856e-05,
      "longitude_deg": -169.4703392703987,
      "height_km": 476.20298956970953,
      "semi_major_axis_km": 6853.365660904514,
      "eccentricity": 0.0001448,
      "inclination_deg": 53.161,
      "raan_deg": 334.8163,
      "arg_perigee_deg": 94.4147,
      "mean_anomaly_deg": 265.7019,
      "mean_motion_rev_day": 15.30195448
    },
    {
      "epoch": "2026-04-01T09:32:35.059200Z",
      "apogee_km": 476.2336776164966,
      "perigee_km": 474.1968613220106,
      "latitude_deg": -3.6661396999897e-05,
      "longitude_deg": -0.5185396669653622,
      "height_km": 476.29119213101035,
      "semi_major_axis_km": 6853.352269469254,
      "eccentricity": 0.0001486,
      "inclination_deg": 53.1618,
      "raan_deg": 332.3888,
      "arg_perigee_deg": 100.0614,
      "mean_anomaly_deg": 260.0554,
      "mean_motion_rev_day": 15.30199933
    },
    {
      "epoch": "2026-04-02T15:19:35.529024Z",
      "apogee_km": 476.1813402309599,
      "perigee_km": 474.2449946746474,
      "latitude_deg": 1.4137879876045808e-06,
      "longitude_deg": -94.25813110929292,
      "height_km": 476.2871395500133,
      "semi_major_axis_km": 6853.350167452803,
      "eccentricity": 0.00014127,
      "inclination_deg": 53.1619,
      "raan_deg": 326.6243,
      "arg_perigee_deg": 100.4654,
      "mean_anomaly_deg": 259.6506,
      "mean_motion_rev_day": 15.30200637
    },
    {
      "epoch": "2026-04-02T21:35:47.949792Z",
      "apogee_km": 476.1369958467112,
      "perigee_km": 474.2343764025891,
      "latitude_deg": -4.917676142357234e-05,
      "longitude_deg": 170.219773632209,
      "height_km": 476.2014512252011,
      "semi_major_axis_km": 6853.32268612465,
      "eccentricity": 0.00013881,
      "inclination_deg": 53.161,
      "raan_deg": 325.4115,
      "arg_perigee_deg": 97.1084,
      "mean_anomaly_deg": 263.0074,
      "mean_motion_rev_day": 15.30209841
    },
    {
      "epoch": "2026-04-03T21:06:36.639072Z",
      "apogee_km": 476.07852297520094,
      "perigee_km": 474.422744522888,
      "latitude_deg": 5.231641331606423e-06,
      "longitude_deg": 172.00197602108037,
      "height_km": 476.1960934531043,
      "semi_major_axis_km": 6853.387633749045,
      "eccentricity": 0.0001208,
      "inclination_deg": 53.1605,
      "raan_deg": 320.8622,
      "arg_perigee_deg": 93.2718,
      "mean_anomaly_deg": 266.8421,
      "mean_motion_rev_day": 15.30188089
    },
    {
      "epoch": "2026-04-04T20:37:24.199968Z",
      "apogee_km": 475.97682136078856,
      "perigee_km": 474.49375159799456,
      "latitude_deg": 4.253893843850159e-05,
      "longitude_deg": 173.78727931331176,
      "height_km": 476.3030199522057,
      "semi_major_axis_km": 6853.372286479392,
      "eccentricity": 0.0001082,
      "inclination_deg": 53.16,
      "raan_deg": 316.3113,
      "arg_perigee_deg": 103.2037,
      "mean_anomaly_deg": 256.9085,
      "mean_motion_rev_day": 15.30193229
    },
    {
      "epoch": "2026-04-04T23:45:31.257504Z",
      "apogee_km": 476.0879037769846,
      "perigee_km": 474.4879031990167,
      "latitude_deg": -2.2033307682557665e-05,
      "longitude_deg": 126.02266274081168,
      "height_km": 476.1436103680778,
      "semi_major_axis_km": 6853.424903488,
      "eccentricity": 0.00011673,
      "inclination_deg": 53.1601,
      "raan_deg": 315.7049,
      "arg_perigee_deg": 86.9536,
      "mean_anomaly_deg": 273.1598,
      "mean_motion_rev_day": 15.30175607
    },
    {
      "epoch": "2026-04-05T18:34:09.676704Z",
      "apogee_km": 475.8994180355403,
      "perigee_km": 474.60823920342864,
      "latitude_deg": 1.4780166042820854e-05,
      "longitude_deg": -160.5520180751631,
      "height_km": 476.42244701140646,
      "semi_major_axis_km": 6853.390828619485,
      "eccentricity": 9.42e-05,
      "inclination_deg": 53.1591,
      "raan_deg": 312.0628,
      "arg_perigee_deg": 114.7318,
      "mean_anomaly_deg": 245.3781,
      "mean_motion_rev_day": 15.30187019
    },
    {
      "epoch": "2026-04-05T18:34:09.677568Z",
      "apogee_km": 475.89914389990736,
      "perigee_km": 474.6085133390625,
      "latitude_deg": 1.8134768365528307e-05,
      "longitude_deg": -160.55201918561733,
      "height_km": 476.4223323228413,
      "semi_major_axis_km": 6853.390828619485,
      "eccentricity": 9.416e-05,
      "inclination_deg": 53.1591,
      "raan_deg": 312.0628,
      "arg_perigee_deg": 114.7318,
      "mean_anomaly_deg": 245.3781,
      "mean_motion_rev_day": 15.30187019
    },
    {
      "epoch": "2026-04-07T12:53:35.420064Z",
      "apogee_km": 475.9845771898281,
      "perigee_km": 474.46628327703456,
      "latitude_deg": -6.139295963657744e-06,
      "longitude_deg": -85.33827954869594,
      "height_km": 476.0533276660973,
      "semi_major_axis_km": 6853.362430233431,
      "eccentricity": 0.00011077,
      "inclination_deg": 53.1591,
      "raan_deg": 303.872,
      "arg_perigee_deg": 84.6859,
      "mean_anomaly_deg": 275.4268,
      "mean_motion_rev_day": 15.3019653
    },
    {
      "epoch": "2026-04-07T17:35:44.873664Z",
      "apogee_km": 475.87745843678476,
      "perigee_km": 474.5616139818321,
      "latitude_deg": -5.52464904872538e-05,
      "longitude_deg": -156.98013669843098,
      "height_km": 476.1346225240056,
      "semi_major_axis_km": 6853.356536209308,
      "eccentricity": 9.6e-05,
      "inclination_deg": 53.1592,
      "raan_deg": 302.9627,
      "arg_perigee_deg": 91.452,
      "mean_anomaly_deg": 268.659,
      "mean_motion_rev_day": 15.30198504
    },
    {
      "epoch": "2026-04-08T13:58:26.476896Z",
      "apogee_km": 475.89436582773396,
      "perigee_km": 474.5701578189646,
      "latitude_deg": 1.1221032260839819e-05,
      "longitude_deg": -107.43394044167374,
      "height_km": 476.197642877337,
      "semi_major_axis_km": 6853.369261823349,
      "eccentricity": 9.661e-05,
      "inclination_deg": 53.159,
      "raan_deg": 299.0191,
      "arg_perigee_deg": 95.808,
      "mean_anomaly_deg": 264.3031,
      "mean_motion_rev_day": 15.30194242
    },
    {
      "epoch": "2026-04-09T19:45:27.429696Z",
      "apogee_km": 475.94950059535313,
      "perigee_km": 474.50755248856876,
      "latitude_deg": 2.7264740129919024e-05,
      "longitude_deg": 158.8240289194451,
      "height_km": 476.2012654683947,
      "semi_major_axis_km": 6853.365526541961,
      "eccentricity": 0.0001052,
      "inclination_deg": 53.1611,
      "raan_deg": 293.2542,
      "arg_perigee_deg": 95.9111,
      "mean_anomaly_deg": 264.201,
      "mean_motion_rev_day": 15.30195493
    },
    {
      "epoch": "2026-04-10T13:00:02.267424Z",
      "apogee_km": 475.8804998154628,
      "perigee_km": 474.5632842364157,
      "latitude_deg": -6.055483041377576e-05,
      "longitude_deg": -103.86734079085964,
      "height_km": 476.1505994891629,
      "semi_major_axis_km": 6853.358892025939,
      "eccentricity": 9.61e-05,
      "inclination_deg": 53.1613,
      "raan_deg": 289.9162,
      "arg_perigee_deg": 92.6166,
      "mean_anomaly_deg": 267.4944,
      "mean_motion_rev_day": 15.30197715
    }
  ]
}